[Satellite]
VERSION=1.1
NAME=STARLINK-1378
NICKNAME=STARLINK-1378
TLE1=1 45548U 20025T   20141.75001157  .03514490  00000-0  51256-1 0  9995
TLE2=2 45548  53.0016 262.2779 0003066  78.5102 352.9639 15.51127644  5105
STATUS=0
